[{"OBJECT_NAME":"STARLINK-31063","OBJECT_ID":"2023-192S","EPOCH":"2026-03-09T23:18:53.049312","MEAN_MOTION":15.30191527,"ECCENTRICITY":0.0001071,"INCLINATION":53.1605,"RA_OF_ASC_NODE":51.0877,"ARG_OF_PERICENTER":74.1855,"MEAN_ANOMALY":285.9264,"EPHEMERIS_TYPE":0,"CLASSIFICATION_TYPE":"U","NORAD_CAT_ID":58547,"ELEMENT_SET_NO":999,"REV_AT_EPOCH":12617,"BSTAR":3.3768315e-5,"MEAN_MOTION_DOT":6.41e-6,"MEAN_MOTION_DDOT":0},{"OBJECT_NAME":"OBJECT D","OBJECT_ID":"2024-092D","EPOCH":"2026-03-09T21:12:33.501312","MEAN_MOTION":15.33078357,"ECCENTRICITY":0.00083397,"INCLINATION":97.6418,"RA_OF_ASC_NODE":198.2302,"ARG_OF_PERICENTER":141.9853,"MEAN_ANOMALY":218.1979,"EPHEMERIS_TYPE":0,"CLASSIFICATION_TYPE":"U","NORAD_CAT_ID":59776,"ELEMENT_SET_NO":999,"REV_AT_EPOCH":10051,"BSTAR":0.00076511005,"MEAN_MOTION_DOT":0.00024443,"MEAN_MOTION_DDOT":0}]
